{
  "norad_id": 51130,
  "name": "STARLINK-3395",
  "history": [
    {
      "epoch": "2026-03-28T18:09:53.429760",
      "apogee_km": 540.7475321643524,
      "perigee_km": 538.7326312855294,
      "latitude_deg": 19.047265195963842,
      "longitude_deg": 85.65936639998108,
      "semi_major_axis_km": 6917.877081724941,
      "eccentricity": 0.00014563,
      "inclination_deg": 53.2176,
      "raan_deg": 213.5309,
      "arg_perigee_deg": 55.3865,
      "mean_anomaly_deg": 304.7264,
      "mean_motion_rev_day": 15.08841082
    }
  ]
}